YAOGAN-36 04C           
1 54750U 22171E   26068.78871400  .00016196  00000+0  54592-3 0  9991
2 54750  34.9797  96.6578 0006685 275.3761  84.6192 15.29852307180246
STARLINK-31942          
1 59899U 24100Q   26067.21830014 -.00000899  00000+0 -23153-4 0  9992
2 59899  42.9999 133.5544 0000992 280.9043  79.1696 15.27567948100929
